{
  "type": "FeatureCollection",
  "features": [
    {
      "type": "Feature",
      "properties": {
        "norad_id": 64903,
        "name": "CO3D 1",
        "group": "resource",
        "lat": -76.51602807549354,
        "lon": -141.37316875027943,
        "alt_km": 513.1854018305921,
        "timestamp": "2025-12-21T11:31:42.499960+00:00",
        "meta_object_name": "CO3D 1",
        "meta_object_id": "2025-156E",
        "meta_epoch": "2025-12-21T04:04:29.584704",
        "meta_mean_motion": 15.20203669,
        "meta_eccentricity": 9e-05,
        "meta_inclination": 97.4342,
        "meta_ra_of_asc_node": 71.3151,
        "meta_arg_of_pericenter": 79.0049,
        "meta_mean_anomaly": 281.1288,
        "meta_ephemeris_type": 0,
        "meta_classification_type": "U",
        "meta_norad_cat_id": 64903,
        "meta_element_set_no": 999,
        "meta_rev_at_epoch": 2248,
        "meta_bstar": 0.00020274,
        "meta_mean_motion_dot": 4.324e-05,
        "meta_mean_motion_ddot": 0,
        "tle_line1": "1 64903U 25156E   25355.16978686  .00004324  00000+0  20274-3 0  9992",
        "tle_line2": "2 64903  97.4342  71.3151 0000900  79.0049 281.1288 15.20203669 22489"
      },
      "geometry": {
        "type": "Point",
        "coordinates": [
          -141.37316875027943,
          -76.51602807549354
        ]
      }
    },
    {
      "type": "Feature",
      "properties": {
        "norad_id": 66514,
        "name": "SENTINEL-6B",
        "group": "resource",
        "lat": 65.69469557653134,
        "lon": -115.66160885592463,
        "alt_km": 1334.2426550983118,
        "timestamp": "2025-12-21T11:31:42.499970+00:00",
        "meta_object_name": "SENTINEL-6B",
        "meta_object_id": "2025-264A",
        "meta_epoch": "2025-12-12T06:01:21.427680",
        "meta_mean_motion": 12.81479575,
        "meta_eccentricity": 0.0007848,
        "meta_inclination": 66.0385,
        "meta_ra_of_asc_node": 163.4531,
        "meta_arg_of_pericenter": 270.1375,
        "meta_mean_anomaly": 89.8741,
        "meta_ephemeris_type": 0,
        "meta_classification_type": "U",
        "meta_norad_cat_id": 66514,
        "meta_element_set_no": 999,
        "meta_rev_at_epoch": 322,
        "meta_bstar": 0.00018195,
        "meta_mean_motion_dot": -1.9e-07,
        "meta_mean_motion_ddot": 0,
        "tle_line1": "1 66514U 25264A   25346.25094245 -.00000019  00000+0  18195-3 0  9999",
        "tle_line2": "2 66514  66.0385 163.4531 0007848 270.1375  89.8741 12.81479575  3220"
      },
      "geometry": {
        "type": "Point",
        "coordinates": [
          -115.66160885592463,
          65.69469557653134
        ]
      }
    }
  ]
}